NORAD_CAT_ID,OBJECT_NAME,OBJECT_TYPE,EPOCH,MEAN_MOTION,ECCENTRICITY,INCLINATION,RA_OF_ASC_NODE,ARG_OF_PERICENTER,MEAN_ANOMALY,BSTAR,MEAN_MOTION_DOT,MEAN_MOTION_DDOT,TLE_LINE0,TLE_LINE1,TLE_LINE2,SEMIMAJOR_AXIS,PERIOD,APOGEE,PERIGEE,DECAYED
51742.0,STARLINK-3521,PAYLOAD,2023-02-27 00:00:00,15.08808331,0.0001324,53.2145,247.2154,80.5941,187.2145,0.0016554,0.00026133,0.0,0 STARLINK-3521,1 51742U 22016AE  23058.00001157  .00026133  00000-0  16554-2 0  9990,2 51742  53.2145 247.2154 0001324  80.5941 187.2145 15.08808331  1302,6917.977,95.44,540.758,538.926,0.0
51742.0,STARLINK-3521,PAYLOAD,2023-02-27 11:32:11,15.08836671,0.0001381,53.2141,245.0567,77.0228,283.0918,7.5301e-05,9.11e-06,0.0,0 STARLINK-3521,1 51742U 22016AE  23058.48068372  .00000911  00000-0  75301-4 0  9997,2 51742  53.2141 245.0567 0001381  77.0228 283.0918 15.08836671 57698,6917.891,95.438,540.711,538.8,0.0
51742.0,STARLINK-3521,PAYLOAD,2023-02-27 19:29:06,15.08849972,0.000134,53.2142,243.57,80.8505,279.2639,0.00017354,2.476e-05,0.0,0 STARLINK-3521,1 51742U 22016AE  23058.81187609  .00002476  00000-0  17354-3 0  9990,2 51742  53.2142 243.5700 0001340  80.8505 279.2639 15.08849972 57747,6917.85,95.437,540.642,538.788,0.0
51742.0,STARLINK-3521,PAYLOAD,2023-02-27 21:04:29,15.08849845,0.0001415,53.2144,243.2726,79.1922,280.9229,0.00017595,2.514e-05,0.0,0 STARLINK-3521,1 51742U 22016AE  23058.87811603  .00002514  00000-0  17595-3 0  9994,2 51742  53.2144 243.2726 0001415  79.1922 280.9229 15.08849845 56620,6917.85,95.437,540.694,538.736,0.0
51742.0,STARLINK-3521,PAYLOAD,2023-02-28 05:01:25,15.0883967,0.0001547,53.2153,241.7853,92.5803,267.5366,-2.0136e-05,-6.08e-06,0.0,0 STARLINK-3521,1 51742U 22016AE  23059.20932068 -.00000608  00000-0 -20136-4 0  9991,2 51742  53.2153 241.7853 0001547  92.5803 267.5366 15.08839670 57806,6917.881,95.438,540.817,538.676,0.0
51742.0,STARLINK-3521,PAYLOAD,2023-02-28 12:58:21,15.08828364,0.0001324,53.2146,240.2993,91.3353,268.779,-0.00010449,-1.95e-05,0.0,0 STARLINK-3521,1 51742U 22016AE  23059.54052703 -.00001950  00000-0 -10449-3 0  9993,2 51742  53.2146 240.2993 0001324  91.3353 268.7790 15.08828364 56729,6917.916,95.438,540.697,538.865,0.0
51742.0,STARLINK-3521,PAYLOAD,2023-02-28 14:33:45,15.08831514,0.0001353,53.2157,240.0023,87.7816,272.3331,-2.6148e-05,-7.04e-06,0.0,0 STARLINK-3521,1 51742U 22016AE  23059.60677150 -.00000704  00000-0 -26148-4 0  9999,2 51742  53.2157 240.0023 0001353  87.7816 272.3331 15.08831514 57867,6917.906,95.438,540.707,538.835,0.0
51742.0,STARLINK-3521,PAYLOAD,2023-02-28 19:19:54,15.08835349,0.0001494,53.2159,239.1095,94.0044,266.1119,-3.5376e-05,-8.51e-06,0.0,0 STARLINK-3521,1 51742U 22016AE  23059.80548942 -.00000851  00000-0 -35376-4 0  9993,2 51742  53.2159 239.1095 0001494  94.0044 266.1119 15.08835349 56760,6917.895,95.438,540.793,538.726,0.0
51742.0,STARLINK-3521,PAYLOAD,2023-03-01 04:52:12,15.08839423,0.0001423,53.2159,237.3249,90.351,269.7645,-6.1304e-05,-1.263e-05,0.0,0 STARLINK-3521,1 51742U 22016AE  23060.20292820 -.00001263  00000-0 -61304-4 0  9998,2 51742  53.2159 237.3249 0001423  90.3510 269.7645 15.08839423 57952,6917.882,95.438,540.732,538.763,0.0
51742.0,STARLINK-3521,PAYLOAD,2023-03-01 14:24:31,15.08833944,0.0001365,53.2153,235.5405,95.5575,264.5572,3.4876e-05,2.67e-06,0.0,0 STARLINK-3521,1 51742U 22016AE  23060.60036986  .00000267  00000-0  34876-4 0  9996,2 51742  53.2153 235.5405 0001365  95.5575 264.5572 15.08833944 56888,6917.899,95.438,540.708,538.82,0.0
51742.0,STARLINK-3521,PAYLOAD,2023-03-02 17:26:05,15.08834071,0.0001232,53.215,230.4846,96.5702,263.543,0.0001408,1.953e-05,0.0,0 STARLINK-3521,1 51742U 22016AE  23061.72645041  .00001953  00000-0  14080-3 0  9995,2 51742  53.2150 230.4846 0001232  96.5702 263.5430 15.08834071 57058,6917.899,95.438,540.616,538.911,0.0
51742.0,STARLINK-3521,PAYLOAD,2023-03-03 10:55:19,15.08842852,0.0001189,53.2149,227.2135,95.9581,264.1547,0.00011972,1.618e-05,0.0,0 STARLINK-3521,1 51742U 22016AE  23062.45508606  .00001618  00000-0  11972-3 0  9996,2 51742  53.2149 227.2135 0001189  95.9581 264.1547 15.08842852 58299,6917.872,95.437,540.559,538.914,0.0
51742.0,STARLINK-3521,PAYLOAD,2023-03-03 17:16:51,15.08855395,0.000121,53.2149,226.0243,93.7495,266.3635,8.9346e-05,1.135e-05,0.0,0 STARLINK-3521,1 51742U 22016AE  23062.72003720  .00001135  00000-0  89346-4 0  9998,2 51742  53.2149 226.0243 0001210  93.7495 266.3635 15.08855395 57209,6917.833,95.437,540.535,538.861,0.0
51742.0,STARLINK-3521,PAYLOAD,2023-03-03 22:02:58,15.08915753,9.16e-05,53.2139,225.1328,97.2491,262.8605,-0.00062526,-0.00010246,0.0,0 STARLINK-3521,1 51742U 22016AE  23062.91872813 -.00010246  00000-0 -62526-3 0  9991,2 51742  53.2139 225.1328 0000916  97.2491 262.8605 15.08915753 58360,6917.649,95.433,540.148,538.88,0.0
51742.0,STARLINK-3521,PAYLOAD,2023-03-04 04:24:34,15.08841044,0.0002881,53.2087,223.9429,88.8501,271.2821,-0.00010479,-1.956e-05,0.0,0 STARLINK-3521,1 51742U 22016AE  23063.18373641 -.00001956  00000-0 -10479-3 0  9994,2 51742  53.2087 223.9429 0002881  88.8501 271.2821 15.08841044 58401,6917.877,95.437,541.735,537.749,0.0
51742.0,STARLINK-3521,PAYLOAD,2023-03-04 12:21:30,15.08835181,0.0001399,53.2142,222.4564,94.6469,265.4683,2.9491e-05,1.81e-06,0.0,0 STARLINK-3521,1 51742U 22016AE  23063.51493245  .00000181  00000-0  29491-4 0  9996,2 51742  53.2142 222.4564 0001399  94.6469 265.4683 15.08835181 57324,6917.895,95.438,540.728,538.792,0.0
51742.0,STARLINK-3521,PAYLOAD,2023-03-04 20:18:25,15.08848667,0.0001303,53.2144,220.9689,90.3166,269.7976,0.00014455,2.014e-05,0.0,0 STARLINK-3521,1 51742U 22016AE  23063.84612386  .00002014  00000-0  14455-3 0  9991,2 51742  53.2144 220.9689 0001303  90.3166 269.7976 15.08848667 58505,6917.854,95.437,540.62,538.818,0.0
51742.0,STARLINK-3521,PAYLOAD,2023-03-05 10:36:53,15.08837512,0.0001539,53.2139,218.2934,86.156,273.9608,-9.9569e-05,-1.872e-05,0.0,0 STARLINK-3521,1 51742U 22016AE  23064.44229043 -.00001872  00000-0 -99569-4 0  9995,2 51742  53.2139 218.2934 0001539  86.1560 273.9608 15.08837512 58599,6917.888,95.438,540.818,538.688,0.0
51742.0,STARLINK-3521,PAYLOAD,2023-03-05 16:58:26,15.08847168,0.0001534,53.2139,217.1048,81.4315,278.6851,4.7644e-05,4.7e-06,0.0,0 STARLINK-3521,1 51742U 22016AE  23064.70724566  .00000470  00000-0  47644-4 0  9992,2 51742  53.2139 217.1048 0001534  81.4315 278.6851 15.08847168 58639,6917.858,95.437,540.785,538.662,0.0
51742.0,STARLINK-3521,PAYLOAD,2023-03-06 10:27:40,15.08841774,0.0001591,53.214,213.8335,82.5118,277.6055,0.00022268,3.258e-05,0.0,0 STARLINK-3521,1 51742U 22016AE  23065.43588961  .00003258  00000-0  22268-3 0  9991,2 51742  53.2140 213.8335 0001591  82.5118 277.6055 15.08841774 58743,6917.875,95.437,540.841,538.639,0.0
51742.0,STARLINK-3521,PAYLOAD,2023-03-06 18:24:35,15.08858834,0.0002055,53.217,212.3472,100.2649,259.8575,0.00040617,6.185e-05,0.0,0 STARLINK-3521,1 51742U 22016AE  23065.76708326  .00006185  00000-0  40617-3 0  9996,2 51742  53.2170 212.3472 0002055 100.2649 259.8575 15.08858834 58794,6917.823,95.436,541.109,538.266,0.0
51742.0,STARLINK-3521,PAYLOAD,2023-03-06 19:59:58,15.08862282,0.0001838,53.2164,212.0493,97.3308,262.7893,0.00047576,7.296e-05,0.0,0 STARLINK-3521,1 51742U 22016AE  23065.83332019  .00007296  00000-0  47576-3 0  9991,2 51742  53.2164 212.0493 0001838  97.3308 262.7893 15.08862282 57677,6917.812,95.436,540.949,538.406,0.0
51742.0,STARLINK-3521,PAYLOAD,2023-03-07 02:21:31,15.08836699,3.29e-05,53.2153,210.8588,115.2798,244.8228,-0.00018974,-3.306e-05,0.0,0 STARLINK-3521,1 51742U 22016AE  23066.09828223 -.00003306  00000-0 -18974-3 0  9997,2 51742  53.2153 210.8588 0000329 115.2798 244.8228 15.08836699 58849,6917.89,95.438,539.983,539.528,0.0
51742.0,STARLINK-3521,PAYLOAD,2023-03-07 16:39:59,15.08852051,0.000145,53.2165,208.1863,107.8688,252.2462,0.00031911,4.796e-05,0.0,0 STARLINK-3521,1 51742U 22016AE  23066.69444208  .00004796  00000-0  31911-3 0  9998,2 51742  53.2165 208.1863 0001450 107.8688 252.2462 15.08852051 58932,6917.844,95.437,540.712,538.705,0.0
51742.0,STARLINK-3521,PAYLOAD,2023-03-08 02:12:18,15.08843508,0.000156,53.2161,206.4011,75.5777,284.5388,0.00022947,3.366e-05,0.0,0 STARLINK-3521,1 51742U 22016AE  23067.09188653  .00003366  00000-0  22947-3 0  9993,2 51742  53.2161 206.4011 0001560  75.5777 284.5388 15.08843508 58994,6917.87,95.437,540.814,538.655,0.0
51742.0,STARLINK-3521,PAYLOAD,2023-03-08 18:06:11,15.08824037,0.0002472,53.2178,203.428,76.9907,283.1361,9.0222e-05,1.147e-05,0.0,0 STARLINK-3521,1 51742U 22016AE  23067.75429996  .00001147  00000-0  90222-4 0  9991,2 51742  53.2178 203.4280 0002472  76.9907 283.1361 15.08824037 59094,6917.929,95.439,541.504,538.084,0.0
51742.0,STARLINK-3521,PAYLOAD,2023-03-09 17:56:57,15.08860662,0.0001805,53.2144,198.9639,80.543,279.5766,0.0007168,0.00011145,0.0,0 STARLINK-3521,1 51742U 22016AE  23068.74788931  .00011145  00000-0  71680-3 0  9993,2 51742  53.2144 198.9639 0001805  80.5430 279.5766 15.08860662 59243,6917.817,95.436,540.931,538.434,0.0
51742.0,STARLINK-3521,PAYLOAD,2023-03-10 17:47:44,15.08848987,0.0001817,53.2141,194.5038,98.4248,261.695,0.0001889,2.72e-05,0.0,0 STARLINK-3521,1 51742U 22016AE  23069.74148938  .00002720  00000-0  18890-3 0  9994,2 51742  53.2141 194.5038 0001817  98.4248 261.6950 15.08848987 59392,6917.853,95.437,540.975,538.461,0.0
51742.0,STARLINK-3521,PAYLOAD,2023-03-11 01:44:41,15.08827616,0.0002928,53.2122,193.0195,73.3057,286.8256,-0.00022752,-3.907e-05,0.0,0 STARLINK-3521,1 51742U 22016AE  23070.07269689 -.00003907  00000-0 -22752-3 0  9991,2 51742  53.2122 193.0195 0002928  73.3057 286.8256 15.08827616 59443,6917.918,95.438,541.809,537.758,0.0
51742.0,STARLINK-3521,PAYLOAD,2023-03-11 12:52:23,15.0883309,0.0001544,53.216,190.9361,77.4272,282.6892,0.00022098,3.23e-05,0.0,0 STARLINK-3521,1 51742U 22016AE  23070.53637797  .00003230  00000-0  22098-3 0  9991,2 51742  53.2160 190.9361 0001544  77.4272 282.6892 15.08833090 58388,6917.902,95.438,540.835,538.698,0.0
